; ========================================================
; ExoKey Dual-Ball Armature Clamp Plate Generator
; Job: Op 3 - Dogbone Perimeter Profiling
; Machine: Duet 2 CNC (RepRapFirmware)
; Stock Thickness: 2.00 mm Aluminum
; Ball Spacing: 15.0 mm C-C | Pocket Depth: 1.10 mm
; Total Parts: 8 plates (4 pairs)
; ========================================================
G21            ; Metric units (mm)
G90            ; Absolute positioning
G94            ; Feed rate units mm/min
G17            ; XY plane selection
G0 Z5.00 F2000 ; Retract to safe Z
M3 S18000   ; Spindle ON (18000 RPM)
G4 P1500       ; Wait 1.5s for spindle to reach full speed

; --------------------------------------------------------
; OPERATION 3: Dogbone Perimeter Profile with Holding Tabs
; Tool: ⌀ 3.175mm (1/8") Flat Carbide Endmill
; --------------------------------------------------------
; Part 1 Dogbone Contour at (7.00, 7.00)
G0 X-0.500 Y12.088 F2000
G0 Z1.500
; Pass 1/5 at Z=-0.500
G1 Z-0.500 F150
G1 X14.500 Y11.562 F450
G1 X14.500 Y12.088 F450
G2 X14.500 Y1.912 R5.088
G1 X-0.500 Y2.438 F450
G1 X-0.500 Y1.912 F450
G2 X-0.500 Y12.088 R5.088
; Pass 2/5 at Z=-1.000
G1 Z-1.000 F150
G1 X14.500 Y11.562 F450
G1 X14.500 Y12.088 F450
G2 X14.500 Y1.912 R5.088
G1 X-0.500 Y2.438 F450
G1 X-0.500 Y1.912 F450
G2 X-0.500 Y12.088 R5.088
; Pass 3/5 at Z=-1.500
G1 Z-1.500 F150
G1 X6.000 Y11.562 F450
G1 Z-1.400 F150 ; Tab bridge
G1 X8.000 Y11.562 F450
G1 Z-1.500 F150
G1 X14.500 Y12.088 F450
G2 X14.500 Y1.912 R5.088
G1 X8.000 Y2.438 F450
G1 Z-1.400 F150 ; Tab bridge
G1 X6.000 Y2.438 F450
G1 Z-1.500 F150
G1 X-0.500 Y1.912 F450
G2 X-0.500 Y12.088 R5.088
; Pass 4/5 at Z=-2.000
G1 Z-2.000 F150
G1 X6.000 Y11.562 F450
G1 Z-1.400 F150 ; Tab bridge
G1 X8.000 Y11.562 F450
G1 Z-2.000 F150
G1 X14.500 Y12.088 F450
G2 X14.500 Y1.912 R5.088
G1 X8.000 Y2.438 F450
G1 Z-1.400 F150 ; Tab bridge
G1 X6.000 Y2.438 F450
G1 Z-2.000 F150
G1 X-0.500 Y1.912 F450
G2 X-0.500 Y12.088 R5.088
; Pass 5/5 at Z=-2.150
G1 Z-2.150 F150
G1 X6.000 Y11.562 F450
G1 Z-1.400 F150 ; Tab bridge
G1 X8.000 Y11.562 F450
G1 Z-2.150 F150
G1 X14.500 Y12.088 F450
G2 X14.500 Y1.912 R5.088
G1 X8.000 Y2.438 F450
G1 Z-1.400 F150 ; Tab bridge
G1 X6.000 Y2.438 F450
G1 Z-2.150 F150
G1 X-0.500 Y1.912 F450
G2 X-0.500 Y12.088 R5.088
G0 Z1.500

; Part 2 Dogbone Contour at (7.00, 20.00)
G0 X-0.500 Y25.087 F2000
G0 Z1.500
; Pass 1/5 at Z=-0.500
G1 Z-0.500 F150
G1 X14.500 Y24.562 F450
G1 X14.500 Y25.087 F450
G2 X14.500 Y14.912 R5.088
G1 X-0.500 Y15.438 F450
G1 X-0.500 Y14.912 F450
G2 X-0.500 Y25.087 R5.088
; Pass 2/5 at Z=-1.000
G1 Z-1.000 F150
G1 X14.500 Y24.562 F450
G1 X14.500 Y25.087 F450
G2 X14.500 Y14.912 R5.088
G1 X-0.500 Y15.438 F450
G1 X-0.500 Y14.912 F450
G2 X-0.500 Y25.087 R5.088
; Pass 3/5 at Z=-1.500
G1 Z-1.500 F150
G1 X6.000 Y24.562 F450
G1 Z-1.400 F150 ; Tab bridge
G1 X8.000 Y24.562 F450
G1 Z-1.500 F150
G1 X14.500 Y25.087 F450
G2 X14.500 Y14.912 R5.088
G1 X8.000 Y15.438 F450
G1 Z-1.400 F150 ; Tab bridge
G1 X6.000 Y15.438 F450
G1 Z-1.500 F150
G1 X-0.500 Y14.912 F450
G2 X-0.500 Y25.087 R5.088
; Pass 4/5 at Z=-2.000
G1 Z-2.000 F150
G1 X6.000 Y24.562 F450
G1 Z-1.400 F150 ; Tab bridge
G1 X8.000 Y24.562 F450
G1 Z-2.000 F150
G1 X14.500 Y25.087 F450
G2 X14.500 Y14.912 R5.088
G1 X8.000 Y15.438 F450
G1 Z-1.400 F150 ; Tab bridge
G1 X6.000 Y15.438 F450
G1 Z-2.000 F150
G1 X-0.500 Y14.912 F450
G2 X-0.500 Y25.087 R5.088
; Pass 5/5 at Z=-2.150
G1 Z-2.150 F150
G1 X6.000 Y24.562 F450
G1 Z-1.400 F150 ; Tab bridge
G1 X8.000 Y24.562 F450
G1 Z-2.150 F150
G1 X14.500 Y25.087 F450
G2 X14.500 Y14.912 R5.088
G1 X8.000 Y15.438 F450
G1 Z-1.400 F150 ; Tab bridge
G1 X6.000 Y15.438 F450
G1 Z-2.150 F150
G1 X-0.500 Y14.912 F450
G2 X-0.500 Y25.087 R5.088
G0 Z1.500

; Part 3 Dogbone Contour at (33.00, 7.00)
G0 X25.500 Y12.088 F2000
G0 Z1.500
; Pass 1/5 at Z=-0.500
G1 Z-0.500 F150
G1 X40.500 Y11.562 F450
G1 X40.500 Y12.088 F450
G2 X40.500 Y1.912 R5.088
G1 X25.500 Y2.438 F450
G1 X25.500 Y1.912 F450
G2 X25.500 Y12.088 R5.088
; Pass 2/5 at Z=-1.000
G1 Z-1.000 F150
G1 X40.500 Y11.562 F450
G1 X40.500 Y12.088 F450
G2 X40.500 Y1.912 R5.088
G1 X25.500 Y2.438 F450
G1 X25.500 Y1.912 F450
G2 X25.500 Y12.088 R5.088
; Pass 3/5 at Z=-1.500
G1 Z-1.500 F150
G1 X32.000 Y11.562 F450
G1 Z-1.400 F150 ; Tab bridge
G1 X34.000 Y11.562 F450
G1 Z-1.500 F150
G1 X40.500 Y12.088 F450
G2 X40.500 Y1.912 R5.088
G1 X34.000 Y2.438 F450
G1 Z-1.400 F150 ; Tab bridge
G1 X32.000 Y2.438 F450
G1 Z-1.500 F150
G1 X25.500 Y1.912 F450
G2 X25.500 Y12.088 R5.088
; Pass 4/5 at Z=-2.000
G1 Z-2.000 F150
G1 X32.000 Y11.562 F450
G1 Z-1.400 F150 ; Tab bridge
G1 X34.000 Y11.562 F450
G1 Z-2.000 F150
G1 X40.500 Y12.088 F450
G2 X40.500 Y1.912 R5.088
G1 X34.000 Y2.438 F450
G1 Z-1.400 F150 ; Tab bridge
G1 X32.000 Y2.438 F450
G1 Z-2.000 F150
G1 X25.500 Y1.912 F450
G2 X25.500 Y12.088 R5.088
; Pass 5/5 at Z=-2.150
G1 Z-2.150 F150
G1 X32.000 Y11.562 F450
G1 Z-1.400 F150 ; Tab bridge
G1 X34.000 Y11.562 F450
G1 Z-2.150 F150
G1 X40.500 Y12.088 F450
G2 X40.500 Y1.912 R5.088
G1 X34.000 Y2.438 F450
G1 Z-1.400 F150 ; Tab bridge
G1 X32.000 Y2.438 F450
G1 Z-2.150 F150
G1 X25.500 Y1.912 F450
G2 X25.500 Y12.088 R5.088
G0 Z1.500

; Part 4 Dogbone Contour at (33.00, 20.00)
G0 X25.500 Y25.087 F2000
G0 Z1.500
; Pass 1/5 at Z=-0.500
G1 Z-0.500 F150
G1 X40.500 Y24.562 F450
G1 X40.500 Y25.087 F450
G2 X40.500 Y14.912 R5.088
G1 X25.500 Y15.438 F450
G1 X25.500 Y14.912 F450
G2 X25.500 Y25.087 R5.088
; Pass 2/5 at Z=-1.000
G1 Z-1.000 F150
G1 X40.500 Y24.562 F450
G1 X40.500 Y25.087 F450
G2 X40.500 Y14.912 R5.088
G1 X25.500 Y15.438 F450
G1 X25.500 Y14.912 F450
G2 X25.500 Y25.087 R5.088
; Pass 3/5 at Z=-1.500
G1 Z-1.500 F150
G1 X32.000 Y24.562 F450
G1 Z-1.400 F150 ; Tab bridge
G1 X34.000 Y24.562 F450
G1 Z-1.500 F150
G1 X40.500 Y25.087 F450
G2 X40.500 Y14.912 R5.088
G1 X34.000 Y15.438 F450
G1 Z-1.400 F150 ; Tab bridge
G1 X32.000 Y15.438 F450
G1 Z-1.500 F150
G1 X25.500 Y14.912 F450
G2 X25.500 Y25.087 R5.088
; Pass 4/5 at Z=-2.000
G1 Z-2.000 F150
G1 X32.000 Y24.562 F450
G1 Z-1.400 F150 ; Tab bridge
G1 X34.000 Y24.562 F450
G1 Z-2.000 F150
G1 X40.500 Y25.087 F450
G2 X40.500 Y14.912 R5.088
G1 X34.000 Y15.438 F450
G1 Z-1.400 F150 ; Tab bridge
G1 X32.000 Y15.438 F450
G1 Z-2.000 F150
G1 X25.500 Y14.912 F450
G2 X25.500 Y25.087 R5.088
; Pass 5/5 at Z=-2.150
G1 Z-2.150 F150
G1 X32.000 Y24.562 F450
G1 Z-1.400 F150 ; Tab bridge
G1 X34.000 Y24.562 F450
G1 Z-2.150 F150
G1 X40.500 Y25.087 F450
G2 X40.500 Y14.912 R5.088
G1 X34.000 Y15.438 F450
G1 Z-1.400 F150 ; Tab bridge
G1 X32.000 Y15.438 F450
G1 Z-2.150 F150
G1 X25.500 Y14.912 F450
G2 X25.500 Y25.087 R5.088
G0 Z1.500

; Part 5 Dogbone Contour at (59.00, 7.00)
G0 X51.500 Y12.088 F2000
G0 Z1.500
; Pass 1/5 at Z=-0.500
G1 Z-0.500 F150
G1 X66.500 Y11.562 F450
G1 X66.500 Y12.088 F450
G2 X66.500 Y1.912 R5.088
G1 X51.500 Y2.438 F450
G1 X51.500 Y1.912 F450
G2 X51.500 Y12.088 R5.088
; Pass 2/5 at Z=-1.000
G1 Z-1.000 F150
G1 X66.500 Y11.562 F450
G1 X66.500 Y12.088 F450
G2 X66.500 Y1.912 R5.088
G1 X51.500 Y2.438 F450
G1 X51.500 Y1.912 F450
G2 X51.500 Y12.088 R5.088
; Pass 3/5 at Z=-1.500
G1 Z-1.500 F150
G1 X58.000 Y11.562 F450
G1 Z-1.400 F150 ; Tab bridge
G1 X60.000 Y11.562 F450
G1 Z-1.500 F150
G1 X66.500 Y12.088 F450
G2 X66.500 Y1.912 R5.088
G1 X60.000 Y2.438 F450
G1 Z-1.400 F150 ; Tab bridge
G1 X58.000 Y2.438 F450
G1 Z-1.500 F150
G1 X51.500 Y1.912 F450
G2 X51.500 Y12.088 R5.088
; Pass 4/5 at Z=-2.000
G1 Z-2.000 F150
G1 X58.000 Y11.562 F450
G1 Z-1.400 F150 ; Tab bridge
G1 X60.000 Y11.562 F450
G1 Z-2.000 F150
G1 X66.500 Y12.088 F450
G2 X66.500 Y1.912 R5.088
G1 X60.000 Y2.438 F450
G1 Z-1.400 F150 ; Tab bridge
G1 X58.000 Y2.438 F450
G1 Z-2.000 F150
G1 X51.500 Y1.912 F450
G2 X51.500 Y12.088 R5.088
; Pass 5/5 at Z=-2.150
G1 Z-2.150 F150
G1 X58.000 Y11.562 F450
G1 Z-1.400 F150 ; Tab bridge
G1 X60.000 Y11.562 F450
G1 Z-2.150 F150
G1 X66.500 Y12.088 F450
G2 X66.500 Y1.912 R5.088
G1 X60.000 Y2.438 F450
G1 Z-1.400 F150 ; Tab bridge
G1 X58.000 Y2.438 F450
G1 Z-2.150 F150
G1 X51.500 Y1.912 F450
G2 X51.500 Y12.088 R5.088
G0 Z1.500

; Part 6 Dogbone Contour at (59.00, 20.00)
G0 X51.500 Y25.087 F2000
G0 Z1.500
; Pass 1/5 at Z=-0.500
G1 Z-0.500 F150
G1 X66.500 Y24.562 F450
G1 X66.500 Y25.087 F450
G2 X66.500 Y14.912 R5.088
G1 X51.500 Y15.438 F450
G1 X51.500 Y14.912 F450
G2 X51.500 Y25.087 R5.088
; Pass 2/5 at Z=-1.000
G1 Z-1.000 F150
G1 X66.500 Y24.562 F450
G1 X66.500 Y25.087 F450
G2 X66.500 Y14.912 R5.088
G1 X51.500 Y15.438 F450
G1 X51.500 Y14.912 F450
G2 X51.500 Y25.087 R5.088
; Pass 3/5 at Z=-1.500
G1 Z-1.500 F150
G1 X58.000 Y24.562 F450
G1 Z-1.400 F150 ; Tab bridge
G1 X60.000 Y24.562 F450
G1 Z-1.500 F150
G1 X66.500 Y25.087 F450
G2 X66.500 Y14.912 R5.088
G1 X60.000 Y15.438 F450
G1 Z-1.400 F150 ; Tab bridge
G1 X58.000 Y15.438 F450
G1 Z-1.500 F150
G1 X51.500 Y14.912 F450
G2 X51.500 Y25.087 R5.088
; Pass 4/5 at Z=-2.000
G1 Z-2.000 F150
G1 X58.000 Y24.562 F450
G1 Z-1.400 F150 ; Tab bridge
G1 X60.000 Y24.562 F450
G1 Z-2.000 F150
G1 X66.500 Y25.087 F450
G2 X66.500 Y14.912 R5.088
G1 X60.000 Y15.438 F450
G1 Z-1.400 F150 ; Tab bridge
G1 X58.000 Y15.438 F450
G1 Z-2.000 F150
G1 X51.500 Y14.912 F450
G2 X51.500 Y25.087 R5.088
; Pass 5/5 at Z=-2.150
G1 Z-2.150 F150
G1 X58.000 Y24.562 F450
G1 Z-1.400 F150 ; Tab bridge
G1 X60.000 Y24.562 F450
G1 Z-2.150 F150
G1 X66.500 Y25.087 F450
G2 X66.500 Y14.912 R5.088
G1 X60.000 Y15.438 F450
G1 Z-1.400 F150 ; Tab bridge
G1 X58.000 Y15.438 F450
G1 Z-2.150 F150
G1 X51.500 Y14.912 F450
G2 X51.500 Y25.087 R5.088
G0 Z1.500

; Part 7 Dogbone Contour at (85.00, 7.00)
G0 X77.500 Y12.088 F2000
G0 Z1.500
; Pass 1/5 at Z=-0.500
G1 Z-0.500 F150
G1 X92.500 Y11.562 F450
G1 X92.500 Y12.088 F450
G2 X92.500 Y1.912 R5.088
G1 X77.500 Y2.438 F450
G1 X77.500 Y1.912 F450
G2 X77.500 Y12.088 R5.088
; Pass 2/5 at Z=-1.000
G1 Z-1.000 F150
G1 X92.500 Y11.562 F450
G1 X92.500 Y12.088 F450
G2 X92.500 Y1.912 R5.088
G1 X77.500 Y2.438 F450
G1 X77.500 Y1.912 F450
G2 X77.500 Y12.088 R5.088
; Pass 3/5 at Z=-1.500
G1 Z-1.500 F150
G1 X84.000 Y11.562 F450
G1 Z-1.400 F150 ; Tab bridge
G1 X86.000 Y11.562 F450
G1 Z-1.500 F150
G1 X92.500 Y12.088 F450
G2 X92.500 Y1.912 R5.088
G1 X86.000 Y2.438 F450
G1 Z-1.400 F150 ; Tab bridge
G1 X84.000 Y2.438 F450
G1 Z-1.500 F150
G1 X77.500 Y1.912 F450
G2 X77.500 Y12.088 R5.088
; Pass 4/5 at Z=-2.000
G1 Z-2.000 F150
G1 X84.000 Y11.562 F450
G1 Z-1.400 F150 ; Tab bridge
G1 X86.000 Y11.562 F450
G1 Z-2.000 F150
G1 X92.500 Y12.088 F450
G2 X92.500 Y1.912 R5.088
G1 X86.000 Y2.438 F450
G1 Z-1.400 F150 ; Tab bridge
G1 X84.000 Y2.438 F450
G1 Z-2.000 F150
G1 X77.500 Y1.912 F450
G2 X77.500 Y12.088 R5.088
; Pass 5/5 at Z=-2.150
G1 Z-2.150 F150
G1 X84.000 Y11.562 F450
G1 Z-1.400 F150 ; Tab bridge
G1 X86.000 Y11.562 F450
G1 Z-2.150 F150
G1 X92.500 Y12.088 F450
G2 X92.500 Y1.912 R5.088
G1 X86.000 Y2.438 F450
G1 Z-1.400 F150 ; Tab bridge
G1 X84.000 Y2.438 F450
G1 Z-2.150 F150
G1 X77.500 Y1.912 F450
G2 X77.500 Y12.088 R5.088
G0 Z1.500

; Part 8 Dogbone Contour at (85.00, 20.00)
G0 X77.500 Y25.087 F2000
G0 Z1.500
; Pass 1/5 at Z=-0.500
G1 Z-0.500 F150
G1 X92.500 Y24.562 F450
G1 X92.500 Y25.087 F450
G2 X92.500 Y14.912 R5.088
G1 X77.500 Y15.438 F450
G1 X77.500 Y14.912 F450
G2 X77.500 Y25.087 R5.088
; Pass 2/5 at Z=-1.000
G1 Z-1.000 F150
G1 X92.500 Y24.562 F450
G1 X92.500 Y25.087 F450
G2 X92.500 Y14.912 R5.088
G1 X77.500 Y15.438 F450
G1 X77.500 Y14.912 F450
G2 X77.500 Y25.087 R5.088
; Pass 3/5 at Z=-1.500
G1 Z-1.500 F150
G1 X84.000 Y24.562 F450
G1 Z-1.400 F150 ; Tab bridge
G1 X86.000 Y24.562 F450
G1 Z-1.500 F150
G1 X92.500 Y25.087 F450
G2 X92.500 Y14.912 R5.088
G1 X86.000 Y15.438 F450
G1 Z-1.400 F150 ; Tab bridge
G1 X84.000 Y15.438 F450
G1 Z-1.500 F150
G1 X77.500 Y14.912 F450
G2 X77.500 Y25.087 R5.088
; Pass 4/5 at Z=-2.000
G1 Z-2.000 F150
G1 X84.000 Y24.562 F450
G1 Z-1.400 F150 ; Tab bridge
G1 X86.000 Y24.562 F450
G1 Z-2.000 F150
G1 X92.500 Y25.087 F450
G2 X92.500 Y14.912 R5.088
G1 X86.000 Y15.438 F450
G1 Z-1.400 F150 ; Tab bridge
G1 X84.000 Y15.438 F450
G1 Z-2.000 F150
G1 X77.500 Y14.912 F450
G2 X77.500 Y25.087 R5.088
; Pass 5/5 at Z=-2.150
G1 Z-2.150 F150
G1 X84.000 Y24.562 F450
G1 Z-1.400 F150 ; Tab bridge
G1 X86.000 Y24.562 F450
G1 Z-2.150 F150
G1 X92.500 Y25.087 F450
G2 X92.500 Y14.912 R5.088
G1 X86.000 Y15.438 F450
G1 Z-1.400 F150 ; Tab bridge
G1 X84.000 Y15.438 F450
G1 Z-2.150 F150
G1 X77.500 Y14.912 F450
G2 X77.500 Y25.087 R5.088
G0 Z1.500


; ========================================================
; Job Completion & Safe Park
; ========================================================
G0 Z20.00 F2000 ; Retract to high safe Z
M5             ; Spindle Stop
M9             ; Coolant/Air blast OFF
G0 X0 Y100     ; Park table forward for part removal
M84 S0         ; Keep steppers engaged or idle
; End of Program