; ========================================================
; ExoKey Parametric N-Way Clamping Plate Generator
; Job: Complete N-Way Clamping Plate Kit (9 pairs)
; Machine: Duet 2 CNC (RepRapFirmware)
; Stock: 2.00 mm Aluminum Sheet
; Ball Diameter: ⌀ 4.8 mm | Pocket Depth: 1.10 mm
; Clamping Screw: M2.5
; ========================================================
G21            ; Metric units (mm)
G90            ; Absolute positioning
G94            ; Feed rate units mm/min
G17            ; XY plane selection
G0 Z5.00 F2000 ; Retract to safe Z
M3 S18000   ; Spindle ON (18000 RPM)
G4 P1500       ; Wait 1.5s for spindle to reach full speed

; --- TOOL 1: Spot / Drill ---
; --------------------------------------------------------
; OPERATION 1: Center Clamping Screw Holes (Peck Drilling)
; Tool: Center / Twist Drill
; --------------------------------------------------------
; Part 1: 2-Way top_clearance at (12.00, 19.00)
G0 X12.000 Y19.000 F2000
G0 Z1.500
G1 Z-0.700 F120
G0 Z1.500 ; Chip clearing retract
G0 Z-0.550
G1 Z-1.400 F120
G0 Z1.500 ; Chip clearing retract
G0 Z-1.250
G1 Z-2.100 F120
G0 Z1.500 ; Chip clearing retract
G0 Z-1.950
G1 Z-2.400 F120
G0 Z1.500 ; Chip clearing retract
G0 Z1.500

; Part 2: 2-Way bottom_tap at (12.00, 51.00)
G0 X12.000 Y51.000 F2000
G0 Z1.500
G1 Z-0.700 F120
G0 Z1.500 ; Chip clearing retract
G0 Z-0.550
G1 Z-1.400 F120
G0 Z1.500 ; Chip clearing retract
G0 Z-1.250
G1 Z-2.100 F120
G0 Z1.500 ; Chip clearing retract
G0 Z-1.950
G1 Z-2.400 F120
G0 Z1.500 ; Chip clearing retract
G0 Z1.500

; Part 3: 2-Way top_clearance at (42.00, 19.00)
G0 X42.000 Y19.000 F2000
G0 Z1.500
G1 Z-0.700 F120
G0 Z1.500 ; Chip clearing retract
G0 Z-0.550
G1 Z-1.400 F120
G0 Z1.500 ; Chip clearing retract
G0 Z-1.250
G1 Z-2.100 F120
G0 Z1.500 ; Chip clearing retract
G0 Z-1.950
G1 Z-2.400 F120
G0 Z1.500 ; Chip clearing retract
G0 Z1.500

; Part 4: 2-Way bottom_tap at (42.00, 51.00)
G0 X42.000 Y51.000 F2000
G0 Z1.500
G1 Z-0.700 F120
G0 Z1.500 ; Chip clearing retract
G0 Z-0.550
G1 Z-1.400 F120
G0 Z1.500 ; Chip clearing retract
G0 Z-1.250
G1 Z-2.100 F120
G0 Z1.500 ; Chip clearing retract
G0 Z-1.950
G1 Z-2.400 F120
G0 Z1.500 ; Chip clearing retract
G0 Z1.500

; Part 5: 2-Way top_clearance at (72.00, 19.00)
G0 X72.000 Y19.000 F2000
G0 Z1.500
G1 Z-0.700 F120
G0 Z1.500 ; Chip clearing retract
G0 Z-0.550
G1 Z-1.400 F120
G0 Z1.500 ; Chip clearing retract
G0 Z-1.250
G1 Z-2.100 F120
G0 Z1.500 ; Chip clearing retract
G0 Z-1.950
G1 Z-2.400 F120
G0 Z1.500 ; Chip clearing retract
G0 Z1.500

; Part 6: 2-Way bottom_tap at (72.00, 51.00)
G0 X72.000 Y51.000 F2000
G0 Z1.500
G1 Z-0.700 F120
G0 Z1.500 ; Chip clearing retract
G0 Z-0.550
G1 Z-1.400 F120
G0 Z1.500 ; Chip clearing retract
G0 Z-1.250
G1 Z-2.100 F120
G0 Z1.500 ; Chip clearing retract
G0 Z-1.950
G1 Z-2.400 F120
G0 Z1.500 ; Chip clearing retract
G0 Z1.500

; Part 7: 2-Way top_clearance at (102.00, 19.00)
G0 X102.000 Y19.000 F2000
G0 Z1.500
G1 Z-0.700 F120
G0 Z1.500 ; Chip clearing retract
G0 Z-0.550
G1 Z-1.400 F120
G0 Z1.500 ; Chip clearing retract
G0 Z-1.250
G1 Z-2.100 F120
G0 Z1.500 ; Chip clearing retract
G0 Z-1.950
G1 Z-2.400 F120
G0 Z1.500 ; Chip clearing retract
G0 Z1.500

; Part 8: 2-Way bottom_tap at (102.00, 51.00)
G0 X102.000 Y51.000 F2000
G0 Z1.500
G1 Z-0.700 F120
G0 Z1.500 ; Chip clearing retract
G0 Z-0.550
G1 Z-1.400 F120
G0 Z1.500 ; Chip clearing retract
G0 Z-1.250
G1 Z-2.100 F120
G0 Z1.500 ; Chip clearing retract
G0 Z-1.950
G1 Z-2.400 F120
G0 Z1.500 ; Chip clearing retract
G0 Z1.500

; Part 9: 2-Way top_clearance at (132.00, 19.00)
G0 X132.000 Y19.000 F2000
G0 Z1.500
G1 Z-0.700 F120
G0 Z1.500 ; Chip clearing retract
G0 Z-0.550
G1 Z-1.400 F120
G0 Z1.500 ; Chip clearing retract
G0 Z-1.250
G1 Z-2.100 F120
G0 Z1.500 ; Chip clearing retract
G0 Z-1.950
G1 Z-2.400 F120
G0 Z1.500 ; Chip clearing retract
G0 Z1.500

; Part 10: 2-Way bottom_tap at (132.00, 51.00)
G0 X132.000 Y51.000 F2000
G0 Z1.500
G1 Z-0.700 F120
G0 Z1.500 ; Chip clearing retract
G0 Z-0.550
G1 Z-1.400 F120
G0 Z1.500 ; Chip clearing retract
G0 Z-1.250
G1 Z-2.100 F120
G0 Z1.500 ; Chip clearing retract
G0 Z-1.950
G1 Z-2.400 F120
G0 Z1.500 ; Chip clearing retract
G0 Z1.500

; Part 11: 2-Way top_clearance at (162.00, 19.00)
G0 X162.000 Y19.000 F2000
G0 Z1.500
G1 Z-0.700 F120
G0 Z1.500 ; Chip clearing retract
G0 Z-0.550
G1 Z-1.400 F120
G0 Z1.500 ; Chip clearing retract
G0 Z-1.250
G1 Z-2.100 F120
G0 Z1.500 ; Chip clearing retract
G0 Z-1.950
G1 Z-2.400 F120
G0 Z1.500 ; Chip clearing retract
G0 Z1.500

; Part 12: 2-Way bottom_tap at (162.00, 51.00)
G0 X162.000 Y51.000 F2000
G0 Z1.500
G1 Z-0.700 F120
G0 Z1.500 ; Chip clearing retract
G0 Z-0.550
G1 Z-1.400 F120
G0 Z1.500 ; Chip clearing retract
G0 Z-1.250
G1 Z-2.100 F120
G0 Z1.500 ; Chip clearing retract
G0 Z-1.950
G1 Z-2.400 F120
G0 Z1.500 ; Chip clearing retract
G0 Z1.500

; Part 13: 3-Way top_clearance at (192.00, 19.00)
G0 X192.000 Y19.000 F2000
G0 Z1.500
G1 Z-0.700 F120
G0 Z1.500 ; Chip clearing retract
G0 Z-0.550
G1 Z-1.400 F120
G0 Z1.500 ; Chip clearing retract
G0 Z-1.250
G1 Z-2.100 F120
G0 Z1.500 ; Chip clearing retract
G0 Z-1.950
G1 Z-2.400 F120
G0 Z1.500 ; Chip clearing retract
G0 Z1.500

; Part 14: 3-Way bottom_tap at (192.00, 51.00)
G0 X192.000 Y51.000 F2000
G0 Z1.500
G1 Z-0.700 F120
G0 Z1.500 ; Chip clearing retract
G0 Z-0.550
G1 Z-1.400 F120
G0 Z1.500 ; Chip clearing retract
G0 Z-1.250
G1 Z-2.100 F120
G0 Z1.500 ; Chip clearing retract
G0 Z-1.950
G1 Z-2.400 F120
G0 Z1.500 ; Chip clearing retract
G0 Z1.500

; Part 15: 3-Way top_clearance at (222.00, 19.00)
G0 X222.000 Y19.000 F2000
G0 Z1.500
G1 Z-0.700 F120
G0 Z1.500 ; Chip clearing retract
G0 Z-0.550
G1 Z-1.400 F120
G0 Z1.500 ; Chip clearing retract
G0 Z-1.250
G1 Z-2.100 F120
G0 Z1.500 ; Chip clearing retract
G0 Z-1.950
G1 Z-2.400 F120
G0 Z1.500 ; Chip clearing retract
G0 Z1.500

; Part 16: 3-Way bottom_tap at (222.00, 51.00)
G0 X222.000 Y51.000 F2000
G0 Z1.500
G1 Z-0.700 F120
G0 Z1.500 ; Chip clearing retract
G0 Z-0.550
G1 Z-1.400 F120
G0 Z1.500 ; Chip clearing retract
G0 Z-1.250
G1 Z-2.100 F120
G0 Z1.500 ; Chip clearing retract
G0 Z-1.950
G1 Z-2.400 F120
G0 Z1.500 ; Chip clearing retract
G0 Z1.500

; Part 17: 4-Way top_clearance at (252.00, 19.00)
G0 X252.000 Y19.000 F2000
G0 Z1.500
G1 Z-0.700 F120
G0 Z1.500 ; Chip clearing retract
G0 Z-0.550
G1 Z-1.400 F120
G0 Z1.500 ; Chip clearing retract
G0 Z-1.250
G1 Z-2.100 F120
G0 Z1.500 ; Chip clearing retract
G0 Z-1.950
G1 Z-2.400 F120
G0 Z1.500 ; Chip clearing retract
G0 Z1.500

; Part 18: 4-Way bottom_tap at (252.00, 51.00)
G0 X252.000 Y51.000 F2000
G0 Z1.500
G1 Z-0.700 F120
G0 Z1.500 ; Chip clearing retract
G0 Z-0.550
G1 Z-1.400 F120
G0 Z1.500 ; Chip clearing retract
G0 Z-1.250
G1 Z-2.100 F120
G0 Z1.500 ; Chip clearing retract
G0 Z-1.950
G1 Z-2.400 F120
G0 Z1.500 ; Chip clearing retract
G0 Z1.500

M5 ; Stop Spindle
G0 Z20.00 ; High Retract
M0 "Tool Change: Insert ⌀ 4.8mm Ball Endmill / 90-deg Chamfer Tool & Re-Zero Z" ; Pause for DWC
M3 S18000 ; Spindle ON
G4 P1500
; --- TOOL 2: Ball Pockets ---
; --------------------------------------------------------
; OPERATION 2: Spherical Ball Pockets (1.10mm depth)
; Tool: ⌀ 4.8mm Ball Endmill / 90° Chamfer
; --------------------------------------------------------
; Part 1 2-Way Clamps at center (12.00, 19.00)
; Pocket 1/2 at (19.500, 19.000)
G0 X19.500 Y19.000 F2000
G0 Z1.500
G1 Z-0.350 F80
G1 Z-0.700 F80
G1 Z-1.050 F80
G1 Z-1.100 F80
G4 P350 ; Dwell for smooth spherical seat
G0 Z1.500
; Pocket 2/2 at (4.500, 19.000)
G0 X4.500 Y19.000 F2000
G0 Z1.500
G1 Z-0.350 F80
G1 Z-0.700 F80
G1 Z-1.050 F80
G1 Z-1.100 F80
G4 P350 ; Dwell for smooth spherical seat
G0 Z1.500

; Part 2 2-Way Clamps at center (12.00, 51.00)
; Pocket 1/2 at (19.500, 51.000)
G0 X19.500 Y51.000 F2000
G0 Z1.500
G1 Z-0.350 F80
G1 Z-0.700 F80
G1 Z-1.050 F80
G1 Z-1.100 F80
G4 P350 ; Dwell for smooth spherical seat
G0 Z1.500
; Pocket 2/2 at (4.500, 51.000)
G0 X4.500 Y51.000 F2000
G0 Z1.500
G1 Z-0.350 F80
G1 Z-0.700 F80
G1 Z-1.050 F80
G1 Z-1.100 F80
G4 P350 ; Dwell for smooth spherical seat
G0 Z1.500

; Part 3 2-Way Clamps at center (42.00, 19.00)
; Pocket 1/2 at (49.500, 19.000)
G0 X49.500 Y19.000 F2000
G0 Z1.500
G1 Z-0.350 F80
G1 Z-0.700 F80
G1 Z-1.050 F80
G1 Z-1.100 F80
G4 P350 ; Dwell for smooth spherical seat
G0 Z1.500
; Pocket 2/2 at (34.500, 19.000)
G0 X34.500 Y19.000 F2000
G0 Z1.500
G1 Z-0.350 F80
G1 Z-0.700 F80
G1 Z-1.050 F80
G1 Z-1.100 F80
G4 P350 ; Dwell for smooth spherical seat
G0 Z1.500

; Part 4 2-Way Clamps at center (42.00, 51.00)
; Pocket 1/2 at (49.500, 51.000)
G0 X49.500 Y51.000 F2000
G0 Z1.500
G1 Z-0.350 F80
G1 Z-0.700 F80
G1 Z-1.050 F80
G1 Z-1.100 F80
G4 P350 ; Dwell for smooth spherical seat
G0 Z1.500
; Pocket 2/2 at (34.500, 51.000)
G0 X34.500 Y51.000 F2000
G0 Z1.500
G1 Z-0.350 F80
G1 Z-0.700 F80
G1 Z-1.050 F80
G1 Z-1.100 F80
G4 P350 ; Dwell for smooth spherical seat
G0 Z1.500

; Part 5 2-Way Clamps at center (72.00, 19.00)
; Pocket 1/2 at (79.500, 19.000)
G0 X79.500 Y19.000 F2000
G0 Z1.500
G1 Z-0.350 F80
G1 Z-0.700 F80
G1 Z-1.050 F80
G1 Z-1.100 F80
G4 P350 ; Dwell for smooth spherical seat
G0 Z1.500
; Pocket 2/2 at (64.500, 19.000)
G0 X64.500 Y19.000 F2000
G0 Z1.500
G1 Z-0.350 F80
G1 Z-0.700 F80
G1 Z-1.050 F80
G1 Z-1.100 F80
G4 P350 ; Dwell for smooth spherical seat
G0 Z1.500

; Part 6 2-Way Clamps at center (72.00, 51.00)
; Pocket 1/2 at (79.500, 51.000)
G0 X79.500 Y51.000 F2000
G0 Z1.500
G1 Z-0.350 F80
G1 Z-0.700 F80
G1 Z-1.050 F80
G1 Z-1.100 F80
G4 P350 ; Dwell for smooth spherical seat
G0 Z1.500
; Pocket 2/2 at (64.500, 51.000)
G0 X64.500 Y51.000 F2000
G0 Z1.500
G1 Z-0.350 F80
G1 Z-0.700 F80
G1 Z-1.050 F80
G1 Z-1.100 F80
G4 P350 ; Dwell for smooth spherical seat
G0 Z1.500

; Part 7 2-Way Clamps at center (102.00, 19.00)
; Pocket 1/2 at (109.500, 19.000)
G0 X109.500 Y19.000 F2000
G0 Z1.500
G1 Z-0.350 F80
G1 Z-0.700 F80
G1 Z-1.050 F80
G1 Z-1.100 F80
G4 P350 ; Dwell for smooth spherical seat
G0 Z1.500
; Pocket 2/2 at (94.500, 19.000)
G0 X94.500 Y19.000 F2000
G0 Z1.500
G1 Z-0.350 F80
G1 Z-0.700 F80
G1 Z-1.050 F80
G1 Z-1.100 F80
G4 P350 ; Dwell for smooth spherical seat
G0 Z1.500

; Part 8 2-Way Clamps at center (102.00, 51.00)
; Pocket 1/2 at (109.500, 51.000)
G0 X109.500 Y51.000 F2000
G0 Z1.500
G1 Z-0.350 F80
G1 Z-0.700 F80
G1 Z-1.050 F80
G1 Z-1.100 F80
G4 P350 ; Dwell for smooth spherical seat
G0 Z1.500
; Pocket 2/2 at (94.500, 51.000)
G0 X94.500 Y51.000 F2000
G0 Z1.500
G1 Z-0.350 F80
G1 Z-0.700 F80
G1 Z-1.050 F80
G1 Z-1.100 F80
G4 P350 ; Dwell for smooth spherical seat
G0 Z1.500

; Part 9 2-Way Clamps at center (132.00, 19.00)
; Pocket 1/2 at (139.500, 19.000)
G0 X139.500 Y19.000 F2000
G0 Z1.500
G1 Z-0.350 F80
G1 Z-0.700 F80
G1 Z-1.050 F80
G1 Z-1.100 F80
G4 P350 ; Dwell for smooth spherical seat
G0 Z1.500
; Pocket 2/2 at (124.500, 19.000)
G0 X124.500 Y19.000 F2000
G0 Z1.500
G1 Z-0.350 F80
G1 Z-0.700 F80
G1 Z-1.050 F80
G1 Z-1.100 F80
G4 P350 ; Dwell for smooth spherical seat
G0 Z1.500

; Part 10 2-Way Clamps at center (132.00, 51.00)
; Pocket 1/2 at (139.500, 51.000)
G0 X139.500 Y51.000 F2000
G0 Z1.500
G1 Z-0.350 F80
G1 Z-0.700 F80
G1 Z-1.050 F80
G1 Z-1.100 F80
G4 P350 ; Dwell for smooth spherical seat
G0 Z1.500
; Pocket 2/2 at (124.500, 51.000)
G0 X124.500 Y51.000 F2000
G0 Z1.500
G1 Z-0.350 F80
G1 Z-0.700 F80
G1 Z-1.050 F80
G1 Z-1.100 F80
G4 P350 ; Dwell for smooth spherical seat
G0 Z1.500

; Part 11 2-Way Clamps at center (162.00, 19.00)
; Pocket 1/2 at (169.500, 19.000)
G0 X169.500 Y19.000 F2000
G0 Z1.500
G1 Z-0.350 F80
G1 Z-0.700 F80
G1 Z-1.050 F80
G1 Z-1.100 F80
G4 P350 ; Dwell for smooth spherical seat
G0 Z1.500
; Pocket 2/2 at (154.500, 19.000)
G0 X154.500 Y19.000 F2000
G0 Z1.500
G1 Z-0.350 F80
G1 Z-0.700 F80
G1 Z-1.050 F80
G1 Z-1.100 F80
G4 P350 ; Dwell for smooth spherical seat
G0 Z1.500

; Part 12 2-Way Clamps at center (162.00, 51.00)
; Pocket 1/2 at (169.500, 51.000)
G0 X169.500 Y51.000 F2000
G0 Z1.500
G1 Z-0.350 F80
G1 Z-0.700 F80
G1 Z-1.050 F80
G1 Z-1.100 F80
G4 P350 ; Dwell for smooth spherical seat
G0 Z1.500
; Pocket 2/2 at (154.500, 51.000)
G0 X154.500 Y51.000 F2000
G0 Z1.500
G1 Z-0.350 F80
G1 Z-0.700 F80
G1 Z-1.050 F80
G1 Z-1.100 F80
G4 P350 ; Dwell for smooth spherical seat
G0 Z1.500

; Part 13 3-Way Clamps at center (192.00, 19.00)
; Pocket 1/3 at (199.500, 19.000)
G0 X199.500 Y19.000 F2000
G0 Z1.500
G1 Z-0.350 F80
G1 Z-0.700 F80
G1 Z-1.050 F80
G1 Z-1.100 F80
G4 P350 ; Dwell for smooth spherical seat
G0 Z1.500
; Pocket 2/3 at (188.250, 25.495)
G0 X188.250 Y25.495 F2000
G0 Z1.500
G1 Z-0.350 F80
G1 Z-0.700 F80
G1 Z-1.050 F80
G1 Z-1.100 F80
G4 P350 ; Dwell for smooth spherical seat
G0 Z1.500
; Pocket 3/3 at (188.250, 12.505)
G0 X188.250 Y12.505 F2000
G0 Z1.500
G1 Z-0.350 F80
G1 Z-0.700 F80
G1 Z-1.050 F80
G1 Z-1.100 F80
G4 P350 ; Dwell for smooth spherical seat
G0 Z1.500

; Part 14 3-Way Clamps at center (192.00, 51.00)
; Pocket 1/3 at (199.500, 51.000)
G0 X199.500 Y51.000 F2000
G0 Z1.500
G1 Z-0.350 F80
G1 Z-0.700 F80
G1 Z-1.050 F80
G1 Z-1.100 F80
G4 P350 ; Dwell for smooth spherical seat
G0 Z1.500
; Pocket 2/3 at (188.250, 57.495)
G0 X188.250 Y57.495 F2000
G0 Z1.500
G1 Z-0.350 F80
G1 Z-0.700 F80
G1 Z-1.050 F80
G1 Z-1.100 F80
G4 P350 ; Dwell for smooth spherical seat
G0 Z1.500
; Pocket 3/3 at (188.250, 44.505)
G0 X188.250 Y44.505 F2000
G0 Z1.500
G1 Z-0.350 F80
G1 Z-0.700 F80
G1 Z-1.050 F80
G1 Z-1.100 F80
G4 P350 ; Dwell for smooth spherical seat
G0 Z1.500

; Part 15 3-Way Clamps at center (222.00, 19.00)
; Pocket 1/3 at (229.500, 19.000)
G0 X229.500 Y19.000 F2000
G0 Z1.500
G1 Z-0.350 F80
G1 Z-0.700 F80
G1 Z-1.050 F80
G1 Z-1.100 F80
G4 P350 ; Dwell for smooth spherical seat
G0 Z1.500
; Pocket 2/3 at (218.250, 25.495)
G0 X218.250 Y25.495 F2000
G0 Z1.500
G1 Z-0.350 F80
G1 Z-0.700 F80
G1 Z-1.050 F80
G1 Z-1.100 F80
G4 P350 ; Dwell for smooth spherical seat
G0 Z1.500
; Pocket 3/3 at (218.250, 12.505)
G0 X218.250 Y12.505 F2000
G0 Z1.500
G1 Z-0.350 F80
G1 Z-0.700 F80
G1 Z-1.050 F80
G1 Z-1.100 F80
G4 P350 ; Dwell for smooth spherical seat
G0 Z1.500

; Part 16 3-Way Clamps at center (222.00, 51.00)
; Pocket 1/3 at (229.500, 51.000)
G0 X229.500 Y51.000 F2000
G0 Z1.500
G1 Z-0.350 F80
G1 Z-0.700 F80
G1 Z-1.050 F80
G1 Z-1.100 F80
G4 P350 ; Dwell for smooth spherical seat
G0 Z1.500
; Pocket 2/3 at (218.250, 57.495)
G0 X218.250 Y57.495 F2000
G0 Z1.500
G1 Z-0.350 F80
G1 Z-0.700 F80
G1 Z-1.050 F80
G1 Z-1.100 F80
G4 P350 ; Dwell for smooth spherical seat
G0 Z1.500
; Pocket 3/3 at (218.250, 44.505)
G0 X218.250 Y44.505 F2000
G0 Z1.500
G1 Z-0.350 F80
G1 Z-0.700 F80
G1 Z-1.050 F80
G1 Z-1.100 F80
G4 P350 ; Dwell for smooth spherical seat
G0 Z1.500

; Part 17 4-Way Clamps at center (252.00, 19.00)
; Pocket 1/4 at (259.500, 19.000)
G0 X259.500 Y19.000 F2000
G0 Z1.500
G1 Z-0.350 F80
G1 Z-0.700 F80
G1 Z-1.050 F80
G1 Z-1.100 F80
G4 P350 ; Dwell for smooth spherical seat
G0 Z1.500
; Pocket 2/4 at (252.000, 26.500)
G0 X252.000 Y26.500 F2000
G0 Z1.500
G1 Z-0.350 F80
G1 Z-0.700 F80
G1 Z-1.050 F80
G1 Z-1.100 F80
G4 P350 ; Dwell for smooth spherical seat
G0 Z1.500
; Pocket 3/4 at (244.500, 19.000)
G0 X244.500 Y19.000 F2000
G0 Z1.500
G1 Z-0.350 F80
G1 Z-0.700 F80
G1 Z-1.050 F80
G1 Z-1.100 F80
G4 P350 ; Dwell for smooth spherical seat
G0 Z1.500
; Pocket 4/4 at (252.000, 11.500)
G0 X252.000 Y11.500 F2000
G0 Z1.500
G1 Z-0.350 F80
G1 Z-0.700 F80
G1 Z-1.050 F80
G1 Z-1.100 F80
G4 P350 ; Dwell for smooth spherical seat
G0 Z1.500

; Part 18 4-Way Clamps at center (252.00, 51.00)
; Pocket 1/4 at (259.500, 51.000)
G0 X259.500 Y51.000 F2000
G0 Z1.500
G1 Z-0.350 F80
G1 Z-0.700 F80
G1 Z-1.050 F80
G1 Z-1.100 F80
G4 P350 ; Dwell for smooth spherical seat
G0 Z1.500
; Pocket 2/4 at (252.000, 58.500)
G0 X252.000 Y58.500 F2000
G0 Z1.500
G1 Z-0.350 F80
G1 Z-0.700 F80
G1 Z-1.050 F80
G1 Z-1.100 F80
G4 P350 ; Dwell for smooth spherical seat
G0 Z1.500
; Pocket 3/4 at (244.500, 51.000)
G0 X244.500 Y51.000 F2000
G0 Z1.500
G1 Z-0.350 F80
G1 Z-0.700 F80
G1 Z-1.050 F80
G1 Z-1.100 F80
G4 P350 ; Dwell for smooth spherical seat
G0 Z1.500
; Pocket 4/4 at (252.000, 43.500)
G0 X252.000 Y43.500 F2000
G0 Z1.500
G1 Z-0.350 F80
G1 Z-0.700 F80
G1 Z-1.050 F80
G1 Z-1.100 F80
G4 P350 ; Dwell for smooth spherical seat
G0 Z1.500

M5 ; Stop Spindle
G0 Z20.00 ; High Retract
M0 "Tool Change: Insert ⌀ 3.175mm (1/8in) Flat Endmill & Re-Zero Z" ; Pause for DWC
M3 S18000 ; Spindle ON
G4 P1500
; --- TOOL 3: Profile with 3D Tabs ---
; --------------------------------------------------------
; OPERATION 3: Multi-Lobe Perimeter Contour with 3D Tabs
; Tool: ⌀ 3.175mm (1/8") Flat Carbide Endmill
; --------------------------------------------------------
; Part 1: 2-Way Contour at (12.00, 19.00)
G0 X24.587 Y19.000 F2000
G0 Z1.500
; Pass 1/5 at Z=-0.500
G1 Z-0.500 F150
G1 X12.000 Y23.579 F450
G1 X-0.588 Y19.000 F450
G1 X12.000 Y14.421 F450
G1 X24.587 Y19.000 F450
; Pass 2/5 at Z=-1.000
G1 Z-1.000 F150
G1 X12.000 Y23.579 F450
G1 X-0.588 Y19.000 F450
G1 X12.000 Y14.421 F450
G1 X24.587 Y19.000 F450
; Pass 3/5 at Z=-1.500
G1 Z-1.500 F150
G1 X12.000 Y23.579 F450
G1 X-0.588 Y19.000 F450
G1 X12.000 Y14.421 F450
G1 X24.587 Y19.000 F450
G1 Z-1.400 F150 ; Holding tab
G1 Z-1.500 F150
; Pass 4/5 at Z=-2.000
G1 Z-2.000 F150
G1 X12.000 Y23.579 F450
G1 X-0.588 Y19.000 F450
G1 X12.000 Y14.421 F450
G1 X24.587 Y19.000 F450
G1 Z-1.400 F150 ; Holding tab
G1 Z-2.000 F150
; Pass 5/5 at Z=-2.150
G1 Z-2.150 F150
G1 X12.000 Y23.579 F450
G1 X-0.588 Y19.000 F450
G1 X12.000 Y14.421 F450
G1 X24.587 Y19.000 F450
G1 Z-1.400 F150 ; Holding tab
G1 Z-2.150 F150
G0 Z1.500

; Part 2: 2-Way Contour at (12.00, 51.00)
G0 X24.587 Y51.000 F2000
G0 Z1.500
; Pass 1/5 at Z=-0.500
G1 Z-0.500 F150
G1 X12.000 Y55.579 F450
G1 X-0.588 Y51.000 F450
G1 X12.000 Y46.421 F450
G1 X24.587 Y51.000 F450
; Pass 2/5 at Z=-1.000
G1 Z-1.000 F150
G1 X12.000 Y55.579 F450
G1 X-0.588 Y51.000 F450
G1 X12.000 Y46.421 F450
G1 X24.587 Y51.000 F450
; Pass 3/5 at Z=-1.500
G1 Z-1.500 F150
G1 X12.000 Y55.579 F450
G1 X-0.588 Y51.000 F450
G1 X12.000 Y46.421 F450
G1 X24.587 Y51.000 F450
G1 Z-1.400 F150 ; Holding tab
G1 Z-1.500 F150
; Pass 4/5 at Z=-2.000
G1 Z-2.000 F150
G1 X12.000 Y55.579 F450
G1 X-0.588 Y51.000 F450
G1 X12.000 Y46.421 F450
G1 X24.587 Y51.000 F450
G1 Z-1.400 F150 ; Holding tab
G1 Z-2.000 F150
; Pass 5/5 at Z=-2.150
G1 Z-2.150 F150
G1 X12.000 Y55.579 F450
G1 X-0.588 Y51.000 F450
G1 X12.000 Y46.421 F450
G1 X24.587 Y51.000 F450
G1 Z-1.400 F150 ; Holding tab
G1 Z-2.150 F150
G0 Z1.500

; Part 3: 2-Way Contour at (42.00, 19.00)
G0 X54.587 Y19.000 F2000
G0 Z1.500
; Pass 1/5 at Z=-0.500
G1 Z-0.500 F150
G1 X42.000 Y23.579 F450
G1 X29.413 Y19.000 F450
G1 X42.000 Y14.421 F450
G1 X54.587 Y19.000 F450
; Pass 2/5 at Z=-1.000
G1 Z-1.000 F150
G1 X42.000 Y23.579 F450
G1 X29.413 Y19.000 F450
G1 X42.000 Y14.421 F450
G1 X54.587 Y19.000 F450
; Pass 3/5 at Z=-1.500
G1 Z-1.500 F150
G1 X42.000 Y23.579 F450
G1 X29.413 Y19.000 F450
G1 X42.000 Y14.421 F450
G1 X54.587 Y19.000 F450
G1 Z-1.400 F150 ; Holding tab
G1 Z-1.500 F150
; Pass 4/5 at Z=-2.000
G1 Z-2.000 F150
G1 X42.000 Y23.579 F450
G1 X29.413 Y19.000 F450
G1 X42.000 Y14.421 F450
G1 X54.587 Y19.000 F450
G1 Z-1.400 F150 ; Holding tab
G1 Z-2.000 F150
; Pass 5/5 at Z=-2.150
G1 Z-2.150 F150
G1 X42.000 Y23.579 F450
G1 X29.413 Y19.000 F450
G1 X42.000 Y14.421 F450
G1 X54.587 Y19.000 F450
G1 Z-1.400 F150 ; Holding tab
G1 Z-2.150 F150
G0 Z1.500

; Part 4: 2-Way Contour at (42.00, 51.00)
G0 X54.587 Y51.000 F2000
G0 Z1.500
; Pass 1/5 at Z=-0.500
G1 Z-0.500 F150
G1 X42.000 Y55.579 F450
G1 X29.413 Y51.000 F450
G1 X42.000 Y46.421 F450
G1 X54.587 Y51.000 F450
; Pass 2/5 at Z=-1.000
G1 Z-1.000 F150
G1 X42.000 Y55.579 F450
G1 X29.413 Y51.000 F450
G1 X42.000 Y46.421 F450
G1 X54.587 Y51.000 F450
; Pass 3/5 at Z=-1.500
G1 Z-1.500 F150
G1 X42.000 Y55.579 F450
G1 X29.413 Y51.000 F450
G1 X42.000 Y46.421 F450
G1 X54.587 Y51.000 F450
G1 Z-1.400 F150 ; Holding tab
G1 Z-1.500 F150
; Pass 4/5 at Z=-2.000
G1 Z-2.000 F150
G1 X42.000 Y55.579 F450
G1 X29.413 Y51.000 F450
G1 X42.000 Y46.421 F450
G1 X54.587 Y51.000 F450
G1 Z-1.400 F150 ; Holding tab
G1 Z-2.000 F150
; Pass 5/5 at Z=-2.150
G1 Z-2.150 F150
G1 X42.000 Y55.579 F450
G1 X29.413 Y51.000 F450
G1 X42.000 Y46.421 F450
G1 X54.587 Y51.000 F450
G1 Z-1.400 F150 ; Holding tab
G1 Z-2.150 F150
G0 Z1.500

; Part 5: 2-Way Contour at (72.00, 19.00)
G0 X84.588 Y19.000 F2000
G0 Z1.500
; Pass 1/5 at Z=-0.500
G1 Z-0.500 F150
G1 X72.000 Y23.579 F450
G1 X59.413 Y19.000 F450
G1 X72.000 Y14.421 F450
G1 X84.588 Y19.000 F450
; Pass 2/5 at Z=-1.000
G1 Z-1.000 F150
G1 X72.000 Y23.579 F450
G1 X59.413 Y19.000 F450
G1 X72.000 Y14.421 F450
G1 X84.588 Y19.000 F450
; Pass 3/5 at Z=-1.500
G1 Z-1.500 F150
G1 X72.000 Y23.579 F450
G1 X59.413 Y19.000 F450
G1 X72.000 Y14.421 F450
G1 X84.588 Y19.000 F450
G1 Z-1.400 F150 ; Holding tab
G1 Z-1.500 F150
; Pass 4/5 at Z=-2.000
G1 Z-2.000 F150
G1 X72.000 Y23.579 F450
G1 X59.413 Y19.000 F450
G1 X72.000 Y14.421 F450
G1 X84.588 Y19.000 F450
G1 Z-1.400 F150 ; Holding tab
G1 Z-2.000 F150
; Pass 5/5 at Z=-2.150
G1 Z-2.150 F150
G1 X72.000 Y23.579 F450
G1 X59.413 Y19.000 F450
G1 X72.000 Y14.421 F450
G1 X84.588 Y19.000 F450
G1 Z-1.400 F150 ; Holding tab
G1 Z-2.150 F150
G0 Z1.500

; Part 6: 2-Way Contour at (72.00, 51.00)
G0 X84.588 Y51.000 F2000
G0 Z1.500
; Pass 1/5 at Z=-0.500
G1 Z-0.500 F150
G1 X72.000 Y55.579 F450
G1 X59.413 Y51.000 F450
G1 X72.000 Y46.421 F450
G1 X84.588 Y51.000 F450
; Pass 2/5 at Z=-1.000
G1 Z-1.000 F150
G1 X72.000 Y55.579 F450
G1 X59.413 Y51.000 F450
G1 X72.000 Y46.421 F450
G1 X84.588 Y51.000 F450
; Pass 3/5 at Z=-1.500
G1 Z-1.500 F150
G1 X72.000 Y55.579 F450
G1 X59.413 Y51.000 F450
G1 X72.000 Y46.421 F450
G1 X84.588 Y51.000 F450
G1 Z-1.400 F150 ; Holding tab
G1 Z-1.500 F150
; Pass 4/5 at Z=-2.000
G1 Z-2.000 F150
G1 X72.000 Y55.579 F450
G1 X59.413 Y51.000 F450
G1 X72.000 Y46.421 F450
G1 X84.588 Y51.000 F450
G1 Z-1.400 F150 ; Holding tab
G1 Z-2.000 F150
; Pass 5/5 at Z=-2.150
G1 Z-2.150 F150
G1 X72.000 Y55.579 F450
G1 X59.413 Y51.000 F450
G1 X72.000 Y46.421 F450
G1 X84.588 Y51.000 F450
G1 Z-1.400 F150 ; Holding tab
G1 Z-2.150 F150
G0 Z1.500

; Part 7: 2-Way Contour at (102.00, 19.00)
G0 X114.588 Y19.000 F2000
G0 Z1.500
; Pass 1/5 at Z=-0.500
G1 Z-0.500 F150
G1 X102.000 Y23.579 F450
G1 X89.412 Y19.000 F450
G1 X102.000 Y14.421 F450
G1 X114.588 Y19.000 F450
; Pass 2/5 at Z=-1.000
G1 Z-1.000 F150
G1 X102.000 Y23.579 F450
G1 X89.412 Y19.000 F450
G1 X102.000 Y14.421 F450
G1 X114.588 Y19.000 F450
; Pass 3/5 at Z=-1.500
G1 Z-1.500 F150
G1 X102.000 Y23.579 F450
G1 X89.412 Y19.000 F450
G1 X102.000 Y14.421 F450
G1 X114.588 Y19.000 F450
G1 Z-1.400 F150 ; Holding tab
G1 Z-1.500 F150
; Pass 4/5 at Z=-2.000
G1 Z-2.000 F150
G1 X102.000 Y23.579 F450
G1 X89.412 Y19.000 F450
G1 X102.000 Y14.421 F450
G1 X114.588 Y19.000 F450
G1 Z-1.400 F150 ; Holding tab
G1 Z-2.000 F150
; Pass 5/5 at Z=-2.150
G1 Z-2.150 F150
G1 X102.000 Y23.579 F450
G1 X89.412 Y19.000 F450
G1 X102.000 Y14.421 F450
G1 X114.588 Y19.000 F450
G1 Z-1.400 F150 ; Holding tab
G1 Z-2.150 F150
G0 Z1.500

; Part 8: 2-Way Contour at (102.00, 51.00)
G0 X114.588 Y51.000 F2000
G0 Z1.500
; Pass 1/5 at Z=-0.500
G1 Z-0.500 F150
G1 X102.000 Y55.579 F450
G1 X89.412 Y51.000 F450
G1 X102.000 Y46.421 F450
G1 X114.588 Y51.000 F450
; Pass 2/5 at Z=-1.000
G1 Z-1.000 F150
G1 X102.000 Y55.579 F450
G1 X89.412 Y51.000 F450
G1 X102.000 Y46.421 F450
G1 X114.588 Y51.000 F450
; Pass 3/5 at Z=-1.500
G1 Z-1.500 F150
G1 X102.000 Y55.579 F450
G1 X89.412 Y51.000 F450
G1 X102.000 Y46.421 F450
G1 X114.588 Y51.000 F450
G1 Z-1.400 F150 ; Holding tab
G1 Z-1.500 F150
; Pass 4/5 at Z=-2.000
G1 Z-2.000 F150
G1 X102.000 Y55.579 F450
G1 X89.412 Y51.000 F450
G1 X102.000 Y46.421 F450
G1 X114.588 Y51.000 F450
G1 Z-1.400 F150 ; Holding tab
G1 Z-2.000 F150
; Pass 5/5 at Z=-2.150
G1 Z-2.150 F150
G1 X102.000 Y55.579 F450
G1 X89.412 Y51.000 F450
G1 X102.000 Y46.421 F450
G1 X114.588 Y51.000 F450
G1 Z-1.400 F150 ; Holding tab
G1 Z-2.150 F150
G0 Z1.500

; Part 9: 2-Way Contour at (132.00, 19.00)
G0 X144.588 Y19.000 F2000
G0 Z1.500
; Pass 1/5 at Z=-0.500
G1 Z-0.500 F150
G1 X132.000 Y23.579 F450
G1 X119.412 Y19.000 F450
G1 X132.000 Y14.421 F450
G1 X144.588 Y19.000 F450
; Pass 2/5 at Z=-1.000
G1 Z-1.000 F150
G1 X132.000 Y23.579 F450
G1 X119.412 Y19.000 F450
G1 X132.000 Y14.421 F450
G1 X144.588 Y19.000 F450
; Pass 3/5 at Z=-1.500
G1 Z-1.500 F150
G1 X132.000 Y23.579 F450
G1 X119.412 Y19.000 F450
G1 X132.000 Y14.421 F450
G1 X144.588 Y19.000 F450
G1 Z-1.400 F150 ; Holding tab
G1 Z-1.500 F150
; Pass 4/5 at Z=-2.000
G1 Z-2.000 F150
G1 X132.000 Y23.579 F450
G1 X119.412 Y19.000 F450
G1 X132.000 Y14.421 F450
G1 X144.588 Y19.000 F450
G1 Z-1.400 F150 ; Holding tab
G1 Z-2.000 F150
; Pass 5/5 at Z=-2.150
G1 Z-2.150 F150
G1 X132.000 Y23.579 F450
G1 X119.412 Y19.000 F450
G1 X132.000 Y14.421 F450
G1 X144.588 Y19.000 F450
G1 Z-1.400 F150 ; Holding tab
G1 Z-2.150 F150
G0 Z1.500

; Part 10: 2-Way Contour at (132.00, 51.00)
G0 X144.588 Y51.000 F2000
G0 Z1.500
; Pass 1/5 at Z=-0.500
G1 Z-0.500 F150
G1 X132.000 Y55.579 F450
G1 X119.412 Y51.000 F450
G1 X132.000 Y46.421 F450
G1 X144.588 Y51.000 F450
; Pass 2/5 at Z=-1.000
G1 Z-1.000 F150
G1 X132.000 Y55.579 F450
G1 X119.412 Y51.000 F450
G1 X132.000 Y46.421 F450
G1 X144.588 Y51.000 F450
; Pass 3/5 at Z=-1.500
G1 Z-1.500 F150
G1 X132.000 Y55.579 F450
G1 X119.412 Y51.000 F450
G1 X132.000 Y46.421 F450
G1 X144.588 Y51.000 F450
G1 Z-1.400 F150 ; Holding tab
G1 Z-1.500 F150
; Pass 4/5 at Z=-2.000
G1 Z-2.000 F150
G1 X132.000 Y55.579 F450
G1 X119.412 Y51.000 F450
G1 X132.000 Y46.421 F450
G1 X144.588 Y51.000 F450
G1 Z-1.400 F150 ; Holding tab
G1 Z-2.000 F150
; Pass 5/5 at Z=-2.150
G1 Z-2.150 F150
G1 X132.000 Y55.579 F450
G1 X119.412 Y51.000 F450
G1 X132.000 Y46.421 F450
G1 X144.588 Y51.000 F450
G1 Z-1.400 F150 ; Holding tab
G1 Z-2.150 F150
G0 Z1.500

; Part 11: 2-Way Contour at (162.00, 19.00)
G0 X174.588 Y19.000 F2000
G0 Z1.500
; Pass 1/5 at Z=-0.500
G1 Z-0.500 F150
G1 X162.000 Y23.579 F450
G1 X149.412 Y19.000 F450
G1 X162.000 Y14.421 F450
G1 X174.588 Y19.000 F450
; Pass 2/5 at Z=-1.000
G1 Z-1.000 F150
G1 X162.000 Y23.579 F450
G1 X149.412 Y19.000 F450
G1 X162.000 Y14.421 F450
G1 X174.588 Y19.000 F450
; Pass 3/5 at Z=-1.500
G1 Z-1.500 F150
G1 X162.000 Y23.579 F450
G1 X149.412 Y19.000 F450
G1 X162.000 Y14.421 F450
G1 X174.588 Y19.000 F450
G1 Z-1.400 F150 ; Holding tab
G1 Z-1.500 F150
; Pass 4/5 at Z=-2.000
G1 Z-2.000 F150
G1 X162.000 Y23.579 F450
G1 X149.412 Y19.000 F450
G1 X162.000 Y14.421 F450
G1 X174.588 Y19.000 F450
G1 Z-1.400 F150 ; Holding tab
G1 Z-2.000 F150
; Pass 5/5 at Z=-2.150
G1 Z-2.150 F150
G1 X162.000 Y23.579 F450
G1 X149.412 Y19.000 F450
G1 X162.000 Y14.421 F450
G1 X174.588 Y19.000 F450
G1 Z-1.400 F150 ; Holding tab
G1 Z-2.150 F150
G0 Z1.500

; Part 12: 2-Way Contour at (162.00, 51.00)
G0 X174.588 Y51.000 F2000
G0 Z1.500
; Pass 1/5 at Z=-0.500
G1 Z-0.500 F150
G1 X162.000 Y55.579 F450
G1 X149.412 Y51.000 F450
G1 X162.000 Y46.421 F450
G1 X174.588 Y51.000 F450
; Pass 2/5 at Z=-1.000
G1 Z-1.000 F150
G1 X162.000 Y55.579 F450
G1 X149.412 Y51.000 F450
G1 X162.000 Y46.421 F450
G1 X174.588 Y51.000 F450
; Pass 3/5 at Z=-1.500
G1 Z-1.500 F150
G1 X162.000 Y55.579 F450
G1 X149.412 Y51.000 F450
G1 X162.000 Y46.421 F450
G1 X174.588 Y51.000 F450
G1 Z-1.400 F150 ; Holding tab
G1 Z-1.500 F150
; Pass 4/5 at Z=-2.000
G1 Z-2.000 F150
G1 X162.000 Y55.579 F450
G1 X149.412 Y51.000 F450
G1 X162.000 Y46.421 F450
G1 X174.588 Y51.000 F450
G1 Z-1.400 F150 ; Holding tab
G1 Z-2.000 F150
; Pass 5/5 at Z=-2.150
G1 Z-2.150 F150
G1 X162.000 Y55.579 F450
G1 X149.412 Y51.000 F450
G1 X162.000 Y46.421 F450
G1 X174.588 Y51.000 F450
G1 Z-1.400 F150 ; Holding tab
G1 Z-2.150 F150
G0 Z1.500

; Part 13: 3-Way Contour at (192.00, 19.00)
G0 X204.588 Y19.000 F2000
G0 Z1.500
; Pass 1/5 at Z=-0.500
G1 Z-0.500 F150
G1 X194.289 Y22.965 F450
G1 X185.706 Y29.901 F450
G1 X187.421 Y19.000 F450
G1 X185.706 Y8.099 F450
G1 X194.289 Y15.035 F450
G1 X204.588 Y19.000 F450
; Pass 2/5 at Z=-1.000
G1 Z-1.000 F150
G1 X194.289 Y22.965 F450
G1 X185.706 Y29.901 F450
G1 X187.421 Y19.000 F450
G1 X185.706 Y8.099 F450
G1 X194.289 Y15.035 F450
G1 X204.588 Y19.000 F450
; Pass 3/5 at Z=-1.500
G1 Z-1.500 F150
G1 X194.289 Y22.965 F450
G1 X185.706 Y29.901 F450
G1 X187.421 Y19.000 F450
G1 X185.706 Y8.099 F450
G1 Z-1.400 F150 ; Holding tab
G1 Z-1.500 F150
G1 X194.289 Y15.035 F450
G1 X204.588 Y19.000 F450
; Pass 4/5 at Z=-2.000
G1 Z-2.000 F150
G1 X194.289 Y22.965 F450
G1 X185.706 Y29.901 F450
G1 X187.421 Y19.000 F450
G1 X185.706 Y8.099 F450
G1 Z-1.400 F150 ; Holding tab
G1 Z-2.000 F150
G1 X194.289 Y15.035 F450
G1 X204.588 Y19.000 F450
; Pass 5/5 at Z=-2.150
G1 Z-2.150 F150
G1 X194.289 Y22.965 F450
G1 X185.706 Y29.901 F450
G1 X187.421 Y19.000 F450
G1 X185.706 Y8.099 F450
G1 Z-1.400 F150 ; Holding tab
G1 Z-2.150 F150
G1 X194.289 Y15.035 F450
G1 X204.588 Y19.000 F450
G0 Z1.500

; Part 14: 3-Way Contour at (192.00, 51.00)
G0 X204.588 Y51.000 F2000
G0 Z1.500
; Pass 1/5 at Z=-0.500
G1 Z-0.500 F150
G1 X194.289 Y54.965 F450
G1 X185.706 Y61.901 F450
G1 X187.421 Y51.000 F450
G1 X185.706 Y40.099 F450
G1 X194.289 Y47.035 F450
G1 X204.588 Y51.000 F450
; Pass 2/5 at Z=-1.000
G1 Z-1.000 F150
G1 X194.289 Y54.965 F450
G1 X185.706 Y61.901 F450
G1 X187.421 Y51.000 F450
G1 X185.706 Y40.099 F450
G1 X194.289 Y47.035 F450
G1 X204.588 Y51.000 F450
; Pass 3/5 at Z=-1.500
G1 Z-1.500 F150
G1 X194.289 Y54.965 F450
G1 X185.706 Y61.901 F450
G1 X187.421 Y51.000 F450
G1 X185.706 Y40.099 F450
G1 Z-1.400 F150 ; Holding tab
G1 Z-1.500 F150
G1 X194.289 Y47.035 F450
G1 X204.588 Y51.000 F450
; Pass 4/5 at Z=-2.000
G1 Z-2.000 F150
G1 X194.289 Y54.965 F450
G1 X185.706 Y61.901 F450
G1 X187.421 Y51.000 F450
G1 X185.706 Y40.099 F450
G1 Z-1.400 F150 ; Holding tab
G1 Z-2.000 F150
G1 X194.289 Y47.035 F450
G1 X204.588 Y51.000 F450
; Pass 5/5 at Z=-2.150
G1 Z-2.150 F150
G1 X194.289 Y54.965 F450
G1 X185.706 Y61.901 F450
G1 X187.421 Y51.000 F450
G1 X185.706 Y40.099 F450
G1 Z-1.400 F150 ; Holding tab
G1 Z-2.150 F150
G1 X194.289 Y47.035 F450
G1 X204.588 Y51.000 F450
G0 Z1.500

; Part 15: 3-Way Contour at (222.00, 19.00)
G0 X234.588 Y19.000 F2000
G0 Z1.500
; Pass 1/5 at Z=-0.500
G1 Z-0.500 F150
G1 X224.289 Y22.965 F450
G1 X215.706 Y29.901 F450
G1 X217.421 Y19.000 F450
G1 X215.706 Y8.099 F450
G1 X224.289 Y15.035 F450
G1 X234.588 Y19.000 F450
; Pass 2/5 at Z=-1.000
G1 Z-1.000 F150
G1 X224.289 Y22.965 F450
G1 X215.706 Y29.901 F450
G1 X217.421 Y19.000 F450
G1 X215.706 Y8.099 F450
G1 X224.289 Y15.035 F450
G1 X234.588 Y19.000 F450
; Pass 3/5 at Z=-1.500
G1 Z-1.500 F150
G1 X224.289 Y22.965 F450
G1 X215.706 Y29.901 F450
G1 X217.421 Y19.000 F450
G1 X215.706 Y8.099 F450
G1 Z-1.400 F150 ; Holding tab
G1 Z-1.500 F150
G1 X224.289 Y15.035 F450
G1 X234.588 Y19.000 F450
; Pass 4/5 at Z=-2.000
G1 Z-2.000 F150
G1 X224.289 Y22.965 F450
G1 X215.706 Y29.901 F450
G1 X217.421 Y19.000 F450
G1 X215.706 Y8.099 F450
G1 Z-1.400 F150 ; Holding tab
G1 Z-2.000 F150
G1 X224.289 Y15.035 F450
G1 X234.588 Y19.000 F450
; Pass 5/5 at Z=-2.150
G1 Z-2.150 F150
G1 X224.289 Y22.965 F450
G1 X215.706 Y29.901 F450
G1 X217.421 Y19.000 F450
G1 X215.706 Y8.099 F450
G1 Z-1.400 F150 ; Holding tab
G1 Z-2.150 F150
G1 X224.289 Y15.035 F450
G1 X234.588 Y19.000 F450
G0 Z1.500

; Part 16: 3-Way Contour at (222.00, 51.00)
G0 X234.588 Y51.000 F2000
G0 Z1.500
; Pass 1/5 at Z=-0.500
G1 Z-0.500 F150
G1 X224.289 Y54.965 F450
G1 X215.706 Y61.901 F450
G1 X217.421 Y51.000 F450
G1 X215.706 Y40.099 F450
G1 X224.289 Y47.035 F450
G1 X234.588 Y51.000 F450
; Pass 2/5 at Z=-1.000
G1 Z-1.000 F150
G1 X224.289 Y54.965 F450
G1 X215.706 Y61.901 F450
G1 X217.421 Y51.000 F450
G1 X215.706 Y40.099 F450
G1 X224.289 Y47.035 F450
G1 X234.588 Y51.000 F450
; Pass 3/5 at Z=-1.500
G1 Z-1.500 F150
G1 X224.289 Y54.965 F450
G1 X215.706 Y61.901 F450
G1 X217.421 Y51.000 F450
G1 X215.706 Y40.099 F450
G1 Z-1.400 F150 ; Holding tab
G1 Z-1.500 F150
G1 X224.289 Y47.035 F450
G1 X234.588 Y51.000 F450
; Pass 4/5 at Z=-2.000
G1 Z-2.000 F150
G1 X224.289 Y54.965 F450
G1 X215.706 Y61.901 F450
G1 X217.421 Y51.000 F450
G1 X215.706 Y40.099 F450
G1 Z-1.400 F150 ; Holding tab
G1 Z-2.000 F150
G1 X224.289 Y47.035 F450
G1 X234.588 Y51.000 F450
; Pass 5/5 at Z=-2.150
G1 Z-2.150 F150
G1 X224.289 Y54.965 F450
G1 X215.706 Y61.901 F450
G1 X217.421 Y51.000 F450
G1 X215.706 Y40.099 F450
G1 Z-1.400 F150 ; Holding tab
G1 Z-2.150 F150
G1 X224.289 Y47.035 F450
G1 X234.588 Y51.000 F450
G0 Z1.500

; Part 17: 4-Way Contour at (252.00, 19.00)
G0 X264.587 Y19.000 F2000
G0 Z1.500
; Pass 1/5 at Z=-0.500
G1 Z-0.500 F150
G1 X255.238 Y22.238 F450
G1 X252.000 Y31.587 F450
G1 X248.762 Y22.238 F450
G1 X239.412 Y19.000 F450
G1 X248.762 Y15.762 F450
G1 X252.000 Y6.412 F450
G1 X255.238 Y15.762 F450
G1 X264.587 Y19.000 F450
; Pass 2/5 at Z=-1.000
G1 Z-1.000 F150
G1 X255.238 Y22.238 F450
G1 X252.000 Y31.587 F450
G1 X248.762 Y22.238 F450
G1 X239.412 Y19.000 F450
G1 X248.762 Y15.762 F450
G1 X252.000 Y6.412 F450
G1 X255.238 Y15.762 F450
G1 X264.587 Y19.000 F450
; Pass 3/5 at Z=-1.500
G1 Z-1.500 F150
G1 X255.238 Y22.238 F450
G1 X252.000 Y31.587 F450
G1 X248.762 Y22.238 F450
G1 X239.412 Y19.000 F450
G1 Z-1.400 F150 ; Holding tab
G1 Z-1.500 F150
G1 X248.762 Y15.762 F450
G1 X252.000 Y6.412 F450
G1 X255.238 Y15.762 F450
G1 X264.587 Y19.000 F450
; Pass 4/5 at Z=-2.000
G1 Z-2.000 F150
G1 X255.238 Y22.238 F450
G1 X252.000 Y31.587 F450
G1 X248.762 Y22.238 F450
G1 X239.412 Y19.000 F450
G1 Z-1.400 F150 ; Holding tab
G1 Z-2.000 F150
G1 X248.762 Y15.762 F450
G1 X252.000 Y6.412 F450
G1 X255.238 Y15.762 F450
G1 X264.587 Y19.000 F450
; Pass 5/5 at Z=-2.150
G1 Z-2.150 F150
G1 X255.238 Y22.238 F450
G1 X252.000 Y31.587 F450
G1 X248.762 Y22.238 F450
G1 X239.412 Y19.000 F450
G1 Z-1.400 F150 ; Holding tab
G1 Z-2.150 F150
G1 X248.762 Y15.762 F450
G1 X252.000 Y6.412 F450
G1 X255.238 Y15.762 F450
G1 X264.587 Y19.000 F450
G0 Z1.500

; Part 18: 4-Way Contour at (252.00, 51.00)
G0 X264.587 Y51.000 F2000
G0 Z1.500
; Pass 1/5 at Z=-0.500
G1 Z-0.500 F150
G1 X255.238 Y54.238 F450
G1 X252.000 Y63.587 F450
G1 X248.762 Y54.238 F450
G1 X239.412 Y51.000 F450
G1 X248.762 Y47.762 F450
G1 X252.000 Y38.413 F450
G1 X255.238 Y47.762 F450
G1 X264.587 Y51.000 F450
; Pass 2/5 at Z=-1.000
G1 Z-1.000 F150
G1 X255.238 Y54.238 F450
G1 X252.000 Y63.587 F450
G1 X248.762 Y54.238 F450
G1 X239.412 Y51.000 F450
G1 X248.762 Y47.762 F450
G1 X252.000 Y38.413 F450
G1 X255.238 Y47.762 F450
G1 X264.587 Y51.000 F450
; Pass 3/5 at Z=-1.500
G1 Z-1.500 F150
G1 X255.238 Y54.238 F450
G1 X252.000 Y63.587 F450
G1 X248.762 Y54.238 F450
G1 X239.412 Y51.000 F450
G1 Z-1.400 F150 ; Holding tab
G1 Z-1.500 F150
G1 X248.762 Y47.762 F450
G1 X252.000 Y38.413 F450
G1 X255.238 Y47.762 F450
G1 X264.587 Y51.000 F450
; Pass 4/5 at Z=-2.000
G1 Z-2.000 F150
G1 X255.238 Y54.238 F450
G1 X252.000 Y63.587 F450
G1 X248.762 Y54.238 F450
G1 X239.412 Y51.000 F450
G1 Z-1.400 F150 ; Holding tab
G1 Z-2.000 F150
G1 X248.762 Y47.762 F450
G1 X252.000 Y38.413 F450
G1 X255.238 Y47.762 F450
G1 X264.587 Y51.000 F450
; Pass 5/5 at Z=-2.150
G1 Z-2.150 F150
G1 X255.238 Y54.238 F450
G1 X252.000 Y63.587 F450
G1 X248.762 Y54.238 F450
G1 X239.412 Y51.000 F450
G1 Z-1.400 F150 ; Holding tab
G1 Z-2.150 F150
G1 X248.762 Y47.762 F450
G1 X252.000 Y38.413 F450
G1 X255.238 Y47.762 F450
G1 X264.587 Y51.000 F450
G0 Z1.500


; ========================================================
; Job Completion & Safe Park
; ========================================================
G0 Z20.00 F2000 ; Retract to high safe Z
M5             ; Spindle Stop
M9             ; Coolant/Air blast OFF
G0 X0 Y100     ; Park table forward for part removal
M84 S0         ; Keep steppers engaged or idle
; End of Program